NORAD_CAT_ID,OBJECT_NAME,OBJECT_TYPE,EPOCH,MEAN_MOTION,ECCENTRICITY,INCLINATION,RA_OF_ASC_NODE,ARG_OF_PERICENTER,MEAN_ANOMALY,BSTAR,MEAN_MOTION_DOT,MEAN_MOTION_DDOT,TLE_LINE0,TLE_LINE1,TLE_LINE2,SEMIMAJOR_AXIS,PERIOD,APOGEE,PERIGEE,DECAYED
52997.0,STARLINK-4301,PAYLOAD,2024-07-31 13:25:15,15.38710394,0.0002617,53.2381,148.6702,82.3032,277.827,0.0021416,0.00083668,0.0,0 STARLINK-4301,1 52997U 22076M   24213.55921097  .00083668  00000-0  21416-2 0  9996,2 52997  53.2381 148.6702 0002617  82.3032 277.8270 15.38710394115188,6828.059,93.585,451.711,448.137,0.0
52997.0,STARLINK-4301,PAYLOAD,2024-07-31 19:39:23,15.38749902,0.00027,53.2385,147.4509,85.147,274.9844,0.0022627,0.00088594,0.0,0 STARLINK-4301,1 52997U 22076M   24213.81902190  .00088594  00000-0  22627-2 0  9996,2 52997  53.2385 147.4509 0002700  85.1470 274.9844 15.38749902115692,6827.942,93.582,451.65,447.963,0.0
52997.0,STARLINK-4301,PAYLOAD,2024-08-01 01:53:30,15.38795552,0.0002897,53.2394,146.2303,84.9317,275.202,0.0026421,0.00103881,0.0,0 STARLINK-4301,1 52997U 22076M   24214.07882574  .00103881  00000-0  26421-2 0  9991,2 52997  53.2394 146.2303 0002897  84.9317 275.2020 15.38795552115260,6827.807,93.58,451.65,447.694,0.0
52997.0,STARLINK-4301,PAYLOAD,2024-08-01 19:02:16,15.38922819,0.0002816,53.2392,142.8739,89.077,271.0558,0.002244,0.00088356,0.0,0 STARLINK-4301,1 52997U 22076M   24214.79324087  .00088356  00000-0  22440-2 0  9996,2 52997  53.2392 142.8739 0002816  89.0770 271.0558 15.38922819115373,6827.43,93.572,451.218,447.373,0.0
52997.0,STARLINK-4301,PAYLOAD,2024-08-02 02:49:51,15.38977446,0.0002935,53.2395,141.3466,95.4056,264.7284,0.0021845,0.00086132,0.0,0 STARLINK-4301,1 52997U 22076M   24215.11795615  .00086132  00000-0  21845-2 0  9990,2 52997  53.2395 141.3466 0002935  95.4056 264.7284 15.38977446115895,6827.269,93.569,451.138,447.13,0.0
52997.0,STARLINK-4301,PAYLOAD,2024-08-02 12:10:56,15.39031828,0.0002919,53.2391,139.5164,95.9951,264.1387,0.0018964,0.00074742,0.0,0 STARLINK-4301,1 52997U 22076M   24215.50760092  .00074742  00000-0  18964-2 0  9996,2 52997  53.2391 139.5164 0002919  95.9951 264.1387 15.39031828115485,6827.108,93.565,450.966,446.98,0.0
52997.0,STARLINK-4301,PAYLOAD,2024-08-03 11:33:34,15.39160345,0.0003011,53.2387,134.9393,100.3583,259.7763,0.0017651,0.00069788,0.0,0 STARLINK-4301,1 52997U 22076M   24216.48165273  .00069788  00000-0  17651-2 0  9990,2 52997  53.2387 134.9393 0003011 100.3583 259.7763 15.39160345116104,6826.728,93.558,450.648,446.537,0.0
52997.0,STARLINK-4301,PAYLOAD,2024-08-03 22:28:06,15.3923663,0.0003097,53.2386,132.8025,101.0653,259.0701,0.0019497,0.00077401,0.0,0 STARLINK-4301,1 52997U 22076M   24216.93618085  .00077401  00000-0  19497-2 0  9995,2 52997  53.2386 132.8025 0003097 101.0653 259.0701 15.39236630115703,6826.502,93.553,450.482,446.253,0.0
52997.0,STARLINK-4301,PAYLOAD,2024-08-04 00:01:35,15.39251471,0.000303,53.2382,132.4983,102.8636,257.2708,0.0021161,0.00084156,0.0,0 STARLINK-4301,1 52997U 22076M   24217.00111096  .00084156  00000-0  21161-2 0  9990,2 52997  53.2382 132.4983 0003030 102.8636 257.2708 15.39251471116185,6826.459,93.552,450.392,446.255,0.0
52997.0,STARLINK-4301,PAYLOAD,2024-08-04 10:56:05,15.39318358,0.0003052,53.2384,130.3616,103.9782,256.1563,0.0019389,0.00077175,0.0,0 STARLINK-4301,1 52997U 22076M   24217.45561385  .00077175  00000-0  19389-2 0  9991,2 52997  53.2384 130.3616 0003052 103.9782 256.1563 15.39318358115785,6826.261,93.548,450.209,446.042,0.0
52997.0,STARLINK-4301,PAYLOAD,2024-08-04 18:43:33,15.39363533,0.00031,53.2389,128.8365,104.3334,255.8016,0.0019614,0.00078202,0.0,0 STARLINK-4301,1 52997U 22076M   24217.78024790  .00078202  00000-0  19614-2 0  9994,2 52997  53.2389 128.8365 0003100 104.3334 255.8016 15.39363533116308,6826.127,93.545,450.108,445.876,0.0
52997.0,STARLINK-4301,PAYLOAD,2024-08-04 21:50:32,15.39406668,0.0003049,53.2388,128.2252,105.6083,254.5259,0.0034887,0.00140759,0.0,0 STARLINK-4301,1 52997U 22076M   24217.91009789  .00140759  00000-0  34887-2 0  9996,2 52997  53.2388 128.2252 0003049 105.6083 254.5259 15.39406668115854,6826.0,93.543,449.946,445.783,0.0
52997.0,STARLINK-4301,PAYLOAD,2024-08-04 23:24:01,15.394224,0.0003033,53.2388,127.9198,106.3688,253.7652,0.0034763,0.00140322,0.0,0 STARLINK-4301,1 52997U 22076M   24217.97502123  .00140322  00000-0  34763-2 0  9991,2 52997  53.2388 127.9198 0003033 106.3688 253.7652 15.39422400116335,6825.953,93.542,449.889,445.748,0.0
52997.0,STARLINK-4301,PAYLOAD,2024-08-05 21:12:51,15.39499464,0.0003124,53.2393,123.6468,109.1326,251.0018,0.0013254,0.00052774,0.0,0 STARLINK-4301,1 52997U 22076M   24218.88393061  .00052774  00000-0  13254-2 0  9996,2 52997  53.2393 123.6468 0003124 109.1326 251.0018 15.39499464116471,6825.725,93.537,449.723,445.458,0.0
52997.0,STARLINK-4301,PAYLOAD,2024-08-05 22:46:20,15.3950666,0.0003127,53.2392,123.3414,109.6363,250.498,0.0013467,0.00053648,0.0,0 STARLINK-4301,1 52997U 22076M   24218.94885030  .00053648  00000-0  13467-2 0  9992,2 52997  53.2392 123.3414 0003127 109.6363 250.4980 15.39506660116015,6825.704,93.536,449.704,445.435,0.0
52997.0,STARLINK-4301,PAYLOAD,2024-08-06 00:19:49,15.39514024,0.0003079,53.2388,123.0366,112.1509,247.9824,0.0013453,0.00053604,0.0,0 STARLINK-4301,1 52997U 22076M   24219.01376935  .00053604  00000-0  13453-2 0  9997,2 52997  53.2388 123.0366 0003079 112.1509 247.9824 15.39514024116022,6825.682,93.536,449.649,445.446,0.0
52997.0,STARLINK-4301,PAYLOAD,2024-08-06 22:08:33,15.39602713,0.000314,53.2392,118.7634,114.1517,245.9818,0.0012187,0.00048633,0.0,0 STARLINK-4301,1 52997U 22076M   24219.92261302  .00048633  00000-0  12187-2 0  9997,2 52997  53.2392 118.7634 0003140 114.1517 245.9818 15.39602713116165,6825.42,93.531,449.428,445.142,0.0
52997.0,STARLINK-4301,PAYLOAD,2024-08-06 23:42:02,15.3960769,0.0003171,53.2394,118.4583,114.7011,245.4325,0.0012411,0.00049548,0.0,0 STARLINK-4301,1 52997U 22076M   24219.98752871  .00049548  00000-0  12411-2 0  9995,2 52997  53.2394 118.4583 0003171 114.7011 245.4325 15.39607690116646,6825.406,93.53,449.435,445.106,0.0
52997.0,STARLINK-4301,PAYLOAD,2024-08-08 00:37:40,15.39659948,0.0003109,53.2391,113.5729,115.6437,244.489,0.00092948,0.00037009,0.0,0 STARLINK-4301,1 52997U 22076M   24221.02616264  .00037009  00000-0  92948-3 0  9991,2 52997  53.2391 113.5729 0003109 115.6437 244.4890 15.39659948116339,6825.251,93.527,449.238,444.994,0.0
52997.0,STARLINK-4301,PAYLOAD,2024-08-08 20:52:49,15.39743672,0.0003307,53.2389,109.601,120.6952,239.438,0.0020005,0.00080804,0.0,0 STARLINK-4301,1 52997U 22076M   24221.87002313  .00080804  00000-0  20005-2 0  9993,2 52997  53.2389 109.6010 0003307 120.6952 239.4380 15.39743672116935,6825.004,93.522,449.126,444.612,0.0
52997.0,STARLINK-4301,PAYLOAD,2024-08-08 22:26:18,15.39715944,0.0003174,53.2391,109.2967,120.7791,239.3528,0.001002,0.00040018,0.0,0 STARLINK-4301,1 52997U 22076M   24221.93493390  .00040018  00000-0  10020-2 0  9998,2 52997  53.2391 109.2967 0003174 120.7791 239.3528 15.39715944116472,6825.086,93.524,449.117,444.784,0.0
52997.0,STARLINK-4301,PAYLOAD,2024-08-09 01:33:15,15.3971405,0.0003133,53.2388,108.6865,116.7111,243.4216,0.00078469,0.00031214,0.0,0 STARLINK-4301,1 52997U 22076M   24222.06475695  .00031214  00000-0  78469-3 0  9991,2 52997  53.2388 108.6865 0003133 116.7111 243.4216 15.39714050116965,6825.091,93.524,449.095,444.818,0.0
52997.0,STARLINK-4301,PAYLOAD,2024-08-09 09:20:36,15.39733069,0.0003095,53.2384,107.1601,119.1437,240.9879,0.00070673,0.00028079,0.0,0 STARLINK-4301,1 52997U 22076M   24222.38930815  .00028079  00000-0  70673-3 0  9990,2 52997  53.2384 107.1601 0003095 119.1437 240.9879 15.39733069116540,6825.035,93.523,449.012,444.788,0.0
52997.0,STARLINK-4301,PAYLOAD,2024-08-09 21:48:21,15.39767747,0.000309,53.2382,104.7175,121.5761,238.5547,0.00078101,0.00031121,0.0,0 STARLINK-4301,1 52997U 22076M   24222.90858170  .00031121  00000-0  78101-3 0  9997,2 52997  53.2382 104.7175 0003090 121.5761 238.5547 15.39767747116623,6824.933,93.521,448.906,444.689,0.0
52997.0,STARLINK-4301,PAYLOAD,2024-08-10 02:28:45,15.39780668,0.0003092,53.2381,103.8017,122.3365,237.7941,0.00080129,0.00031956,0.0,0 STARLINK-4301,1 52997U 22076M   24223.10330657  .00031956  00000-0  80129-3 0  9994,2 52997  53.2381 103.8017 0003092 122.3365 237.7941 15.39780668117120,6824.894,93.52,448.87,444.649,0.0
52997.0,STARLINK-4301,PAYLOAD,2024-08-10 22:43:48,15.39847097,0.0003021,53.238,99.8321,126.3208,233.8077,0.00095288,0.00038193,0.0,0 STARLINK-4301,1 52997U 22076M   24223.94709120  .00038193  00000-0  95288-3 0  9993,2 52997  53.2380  99.8321 0003021 126.3208 233.8077 15.39847097116781,6824.698,93.516,448.625,444.501,0.0
52997.0,STARLINK-4301,PAYLOAD,2024-08-11 15:51:51,15.39967802,0.0003149,53.2378,96.4683,144.8772,215.2442,0.0017639,0.00071641,0.0,0 STARLINK-4301,1 52997U 22076M   24224.66101276  .00071641  00000-0  17639-2 0  9999,2 52997  53.2378  96.4683 0003149 144.8772 215.2442 15.39967802117366,6824.341,93.508,448.355,444.057,0.0
52997.0,STARLINK-4301,PAYLOAD,2024-08-11 22:05:41,15.39981265,0.0002836,53.2391,95.2513,132.5515,227.5731,0.0011678,0.00047162,0.0,0 STARLINK-4301,1 52997U 22076M   24224.92061406  .00047162  00000-0  11678-2 0  9996,2 52997  53.2391  95.2513 0002836 132.5515 227.5731 15.39981265116939,6824.302,93.508,448.102,444.231,0.0
52997.0,STARLINK-4301,PAYLOAD,2024-08-11 23:39:08,15.39989752,0.0002752,53.2388,94.9454,132.5443,227.5796,0.001271,0.00051408,0.0,0 STARLINK-4301,1 52997U 22076M   24224.98551332  .00051408  00000-0  12710-2 0  9990,2 52997  53.2388  94.9454 0002752 132.5443 227.5796 15.39989752117416,6824.277,93.507,448.02,444.264,0.0
52997.0,STARLINK-4301,PAYLOAD,2024-08-12 21:27:27,15.40108415,0.0002917,53.239,90.6692,132.9012,227.224,0.0018663,0.00076222,0.0,0 STARLINK-4301,1 52997U 22076M   24225.89407114  .00076222  00000-0  18663-2 0  9993,2 52997  53.2390  90.6692 0002917 132.9012 227.2240 15.40108415117552,6823.926,93.5,447.782,443.801,0.0
